ONEWEB-0341             
1 49207U 21083X   26187.94403339  .00000021  00000+0  19357-4 0  9996
2 49207  87.9184 331.5279 0002378  93.3611 266.7794 13.18687195232595
ONEWEB-0342             
1 49208U 21083Y   26188.19915227  .00000067  00000+0  13398-3 0  9997
2 49208  87.9191 270.4494 0002097 102.6263 257.5105 13.20772087239420
ONEWEB-0343             
1 49209U 21083Z   26187.87659131  .00000029  00000+0  40011-4 0  9992
2 49209  87.9185 331.5405 0002048 106.9521 253.1835 13.18687459232638
ONEWEB-0344             
1 49210U 21083AA  26187.84984088 -.00000301  00000+0 -86010-3 0  9996
2 49210  87.8970 316.3247 0002267  96.2417 263.8971 13.13469177233476
ONEWEB-0345             
1 49211U 21083AB  26187.91755641 -.00000305  00000+0 -86946-3 0  9998
2 49211  87.8980 316.2957 0002244  97.1453 262.9931 13.13468997233497
ONEWEB-0346             
1 49212U 21083AC  26187.94909441  .00000001  00000+0 -28936-4 0  9999
2 49212  87.9180 331.5253 0001794  75.2322 284.9009 13.18687198232581
ONEWEB-0348             
1 49213U 21083AD  26188.18905457  .00000088  00000+0  18469-3 0  9993
2 49213  87.9195 270.4557 0002271  86.4784 273.6609 13.20771730239456
ONEWEB-0350             
1 49214U 21083AE  26187.86004328 -.00003245  00000+0 -89293-2 0  9997
2 49214  87.8969 316.3112 0001394 129.0793 231.0461 13.13440256233514
ONEWEB-0351             
1 49215U 21083AF  26187.72762538  .00000006  00000+0 -17359-4 0  9994
2 49215  87.9193 270.5463 0002554 109.5944 250.5466 13.20770718239351
ONEWEB-0352             
1 49216U 21083AG  26187.90739904 -.00000130  00000+0 -39031-3 0  9995
2 49216  87.8975 316.3072 0002134 109.6347 250.5012 13.13468314233614
ONEWEB-0354             
1 49217U 21083AH  26187.67894677 -.00002048  00000+0 -50683-2 0  9994
2 49217  87.9194 270.5547 0002559  93.6606 266.4820 13.20781473239383
ONEWEB-0355             
1 49218U 21083AJ  26187.86049654 -.00000101  00000+0 -31273-3 0  9996
2 49218  87.8968 316.3173 0002103 100.9682 259.1683 13.13297066233480
ONEWEB-0357             
1 49219U 21083AK  26187.67556472 -.00000011  00000+0 -59741-4 0  9998
2 49219  87.9193 270.5494 0002198 103.9893 256.1485 13.20773857239387
ONEWEB-0332             
1 49279U 21090A   26187.70479005 -.00000064  00000+0 -20643-3 0  9998
2 49279  87.8970 285.8197 0001859 105.5567 254.5768 13.14503426230140
ONEWEB-0347             
1 49280U 21090B   26188.19576385 -.00000016  00000+0 -71380-4 0  9995
2 49280  87.9193 270.4537 0001909 106.2256 253.9087 13.20769751233688
ONEWEB-0349             
1 49281U 21090C   26187.69745568 -.00000006  00000+0 -45678-4 0  9991
2 49281  87.9194 270.5538 0002121  99.1953 260.9420 13.20773418232406
ONEWEB-0353             
1 49282U 21090D   26187.69685920 -.00000105  00000+0 -31828-3 0  9998
2 49282  87.8973 285.8176 0001848 106.9738 253.1594 13.14502603230145
ONEWEB-0356             
1 49283U 21090E   26187.69577512 -.00000004  00000+0 -42616-4 0  9992
2 49283  87.9191 270.5473 0001419  81.1538 278.9756 13.20770062232405
ONEWEB-0358             
1 49284U 21090F   26187.65608215  .00000037  00000+0  59455-4 0  9997
2 49284  87.9193 270.5627 0002019  94.8364 265.3000 13.20777683233122
ONEWEB-0359             
1 49285U 21090G   26188.17724514  .00000068  00000+0  13542-3 0  9997
2 49285  87.9193 270.4513 0002202  92.8471 267.2915 13.20769815233176
ONEWEB-0360             
1 49286U 21090H   26188.16716892  .00000091  00000+0  19094-3 0  9991
2 49286  87.9192 270.4595 0002163  99.1819 260.9559 13.20770812232484
ONEWEB-0361             
1 49287U 21090J   26187.69410139 -.00000033  00000+0 -11356-3 0  9995
2 49287  87.9195 270.5523 0002087  95.3050 264.8322 13.20772110232877
ONEWEB-0362             
1 49288U 21090K   26187.35888264  .00000066  00000+0  13353-3 0  9990
2 49288  87.9184 301.1596 0002186 104.2013 255.9363 13.19725439229441
ONEWEB-0363             
1 49289U 21090L   26187.70925763  .00000038  00000+0  62744-4 0  9994
2 49289  87.9192 270.5495 0001825  91.7957 268.3385 13.20771936232883
ONEWEB-0364             
1 49290U 21090M   26187.67220010 -.00000620  00000+0 -15563-2 0  9999
2 49290  87.9191 270.5647 0002057  99.9522 260.1844 13.20773417234012
ONEWEB-0365             
1 49291U 21090N   26187.67162603  .00000027  00000+0  35940-4 0  9995
2 49291  87.9192 301.0871 0001989 103.1648 256.9706 13.19725718228992
ONEWEB-0366             
1 49292U 21090P   26187.69369009 -.00000152  00000+0 -44560-3 0  9995
2 49292  87.8973 285.8200 0002020  99.6290 260.5068 13.14502296230122
ONEWEB-0367             
1 49293U 21090Q   26188.16295697  .00000077  00000+0  15721-3 0  9991
2 49293  87.9193 270.4606 0002157 103.5270 256.6104 13.20773130232462
ONEWEB-0368             
1 49294U 21090R   26187.68232588 -.00000087  00000+0 -24571-3 0  9994
2 49294  87.9182 270.5644 0001380 110.0868 250.0413 13.20771297233551
ONEWEB-0369             
1 49295U 21090S   26187.36362134  .00000038  00000+0  61993-4 0  9995
2 49295  87.9182 301.1545 0001904 102.6148 257.5197 13.19725972228948
