OBJECT_NAME,OBJECT_ID,EPOCH,MEAN_MOTION,ECCENTRICITY,INCLINATION,RA_OF_ASC_NODE,ARG_OF_PERICENTER,MEAN_ANOMALY,EPHEMERIS_TYPE,CLASSIFICATION_TYPE,NORAD_CAT_ID,ELEMENT_SET_NO,REV_AT_EPOCH,BSTAR,MEAN_MOTION_DOT,MEAN_MOTION_DDOT
ONEWEB-0341,2021-083X,2026-07-06T22:39:24.484896,13.18687195,.0002378,87.9184,331.5279,93.3611,266.7794,0,U,49207,999,23259,.19357E-4,.21E-6,0
ONEWEB-0342,2021-083Y,2026-07-07T04:46:46.756128,13.20772087,.0002097,87.9191,270.4494,102.6263,257.5105,0,U,49208,999,23942,.13398E-3,.67E-6,0
ONEWEB-0343,2021-083Z,2026-07-06T21:02:17.489184,13.18687459,.0002048,87.9185,331.5405,106.9521,253.1835,0,U,49209,999,23263,.40011E-4,.29E-6,0
ONEWEB-0344,2021-083AA,2026-07-06T20:23:46.252032,13.13469177,.0002267,87.8970,316.3247,96.2417,263.8971,0,U,49210,999,23347,-.8601E-3,-.301E-5,0
ONEWEB-0345,2021-083AB,2026-07-06T22:01:16.873824,13.13468997,.0002244,87.8980,316.2957,97.1453,262.9931,0,U,49211,999,23349,-.86946E-3,-.305E-5,0
ONEWEB-0346,2021-083AC,2026-07-06T22:46:41.757024,13.18687198,.0001794,87.9180,331.5253,75.2322,284.9009,0,U,49212,999,23258,-.28936E-4,.1E-7,0
ONEWEB-0348,2021-083AD,2026-07-07T04:32:14.314848,13.20771730,.0002271,87.9195,270.4557,86.4784,273.6609,0,U,49213,999,23945,.18469E-3,.88E-6,0
ONEWEB-0350,2021-083AE,2026-07-06T20:38:27.739392,13.13440256,.0001394,87.8969,316.3112,129.0793,231.0461,0,U,49214,999,23351,-.89293E-2,-.3245E-4,0
ONEWEB-0351,2021-083AF,2026-07-06T17:27:46.832832,13.20770718,.0002554,87.9193,270.5463,109.5944,250.5466,0,U,49215,999,23935,-.17359E-4,.6E-7,0
ONEWEB-0352,2021-083AG,2026-07-06T21:46:39.277056,13.13468314,.0002134,87.8975,316.3072,109.6347,250.5012,0,U,49216,999,23361,-.39031E-3,-.13E-5,0
ONEWEB-0354,2021-083AH,2026-07-06T16:17:41.000928,13.20781473,.0002559,87.9194,270.5547,93.6606,266.4820,0,U,49217,999,23938,-.50683E-2,-.2048E-4,0
ONEWEB-0355,2021-083AJ,2026-07-06T20:39:06.901056,13.13297066,.0002103,87.8968,316.3173,100.9682,259.1683,0,U,49218,999,23348,-.31273E-3,-.101E-5,0
ONEWEB-0357,2021-083AK,2026-07-06T16:12:48.791808,13.20773857,.0002198,87.9193,270.5494,103.9893,256.1485,0,U,49219,999,23938,-.59741E-4,-.11E-6,0
ONEWEB-0332,2021-090A,2026-07-06T16:54:53.860320,13.14503426,.0001859,87.8970,285.8197,105.5567,254.5768,0,U,49279,999,23014,-.20643E-3,-.64E-6,0
ONEWEB-0347,2021-090B,2026-07-07T04:41:53.996640,13.20769751,.0001909,87.9193,270.4537,106.2256,253.9087,0,U,49280,999,23368,-.7138E-4,-.16E-6,0
ONEWEB-0349,2021-090C,2026-07-06T16:44:20.170752,13.20773418,.0002121,87.9194,270.5538,99.1953,260.9420,0,U,49281,999,23240,-.45678E-4,-.6E-7,0
ONEWEB-0353,2021-090D,2026-07-06T16:43:28.634880,13.14502603,.0001848,87.8973,285.8176,106.9738,253.1594,0,U,49282,999,23014,-.31828E-3,-.105E-5,0
ONEWEB-0356,2021-090E,2026-07-06T16:41:54.970368,13.20770062,.0001419,87.9191,270.5473,81.1538,278.9756,0,U,49283,999,23240,-.42616E-4,-.4E-7,0
ONEWEB-0358,2021-090F,2026-07-06T15:44:45.497760,13.20777683,.0002019,87.9193,270.5627,94.8364,265.3000,0,U,49284,999,23312,.59455E-4,.37E-6,0
ONEWEB-0359,2021-090G,2026-07-07T04:15:13.980096,13.20769815,.0002202,87.9193,270.4513,92.8471,267.2915,0,U,49285,999,23317,.13542E-3,.68E-6,0
ONEWEB-0360,2021-090H,2026-07-07T04:00:43.394688,13.20770812,.0002163,87.9192,270.4595,99.1819,260.9559,0,U,49286,999,23248,.19094E-3,.91E-6,0
ONEWEB-0361,2021-090J,2026-07-06T16:39:30.360096,13.20772110,.0002087,87.9195,270.5523,95.3050,264.8322,0,U,49287,999,23287,-.11356E-3,-.33E-6,0
ONEWEB-0362,2021-090K,2026-07-06T08:36:47.460096,13.19725439,.00021868,87.9184,301.1596,104.2013,255.9363,0,U,49288,999,22944,.1335317E-3,.66E-6,0
ONEWEB-0363,2021-090L,2026-07-06T17:01:19.859232,13.20771936,.0001825,87.9192,270.5495,91.7957,268.3385,0,U,49289,999,23288,.62744E-4,.38E-6,0
ONEWEB-0364,2021-090M,2026-07-06T16:07:58.088640,13.20773417,.0002057,87.9191,270.5647,99.9522,260.1844,0,U,49290,999,23401,-.15563E-2,-.62E-5,0
ONEWEB-0365,2021-090N,2026-07-06T16:07:08.488992,13.19725718,.0001989,87.9192,301.0871,103.1648,256.9706,0,U,49291,999,22899,.3594E-4,.27E-6,0
ONEWEB-0366,2021-090P,2026-07-06T16:38:54.823776,13.14502296,.000202,87.8973,285.8200,99.6290,260.5068,0,U,49292,999,23012,-.4456E-3,-.152E-5,0
ONEWEB-0367,2021-090Q,2026-07-07T03:54:39.482208,13.20773130,.0002157,87.9193,270.4606,103.5270,256.6104,0,U,49293,999,23246,.15721E-3,.77E-6,0
ONEWEB-0368,2021-090R,2026-07-06T16:22:32.956032,13.20771297,.000138,87.9182,270.5644,110.0868,250.0413,0,U,49294,999,23355,-.24571E-3,-.87E-6,0
ONEWEB-0369,2021-090S,2026-07-06T08:43:36.883776,13.19725972,.00019044,87.9182,301.1545,102.6148,257.5197,0,U,49295,999,22894,.61992876E-4,.38E-6,0
